0 OPS 4682 DEB
1 38361U 65027BN  13281.17965791 -.00000048  00000-0 -18816-3 0   780
2 38361 090.2821 254.2649 0031288 265.8811 093.8734 12.98396851511902
0 OPS 4682 DEB
1 38361U 65027BN  13283.18325677  .00000423  00000-0  14106-2 0   799
2 38361 090.2827 254.3190 0031153 260.2982 099.4620 12.98391992512165
0 OPS 4682 DEB
1 38361U 65027BN  13286.18866589  .00000974  00000-0  32823-2 0   803
2 38361 090.2861 254.4006 0031181 252.4004 107.3711 12.98391990512550
0 OPS 4682 DEB
1 38361U 65027BN  13288.34639645  .00000844  00000-0  28389-2 0   813
2 38361 090.2860 254.4658 0031072 245.0373 114.7519 12.98397234512834
